OBJECT_NAME,OBJECT_ID,EPOCH,MEAN_MOTION,ECCENTRICITY,INCLINATION,RA_OF_ASC_NODE,ARG_OF_PERICENTER,MEAN_ANOMALY,EPHEMERIS_TYPE,CLASSIFICATION_TYPE,NORAD_CAT_ID,ELEMENT_SET_NO,REV_AT_EPOCH,BSTAR,MEAN_MOTION_DOT,MEAN_MOTION_DDOT
ONEWEB-0707,2024-188U,2026-06-26T03:39:33.454656,13.10381472,.00023216,87.8831,34.4740,96.1693,263.9699,0,U,61612,999,8449,-.50577412E-2,-.1753E-4,0
ONEWEB-0708,2024-188V,2026-06-26T02:16:30.543744,13.10366078,.0002287,87.8822,34.5026,79.8269,280.3116,0,U,61613,999,8446,.44953286E-2,.1582E-4,0
